UNKNOWN                 
1 82187U          22290.24789161  .00030046  00000+0  45133-2 0  9999
2 82187  70.9476 232.9564 0055523 118.7027 241.9723 14.73352149473975
UNKNOWN                 
1 82189U          22289.56016026  .00000275  00000+0  10807-3 0  9999
2 82189  74.0373   0.1624 0015465 112.5813 247.6977 14.33802419467069
UNKNOWN                 
1 82199U          22289.71178958  .00000500  00000+0  43484-3 0  9998
2 82199  82.9714  19.2447 0038260  70.4781  81.4974 13.83828707450116
UNKNOWN                 
1 82205U          22290.42736814  .00001798  00000+0  43971-3 0  9998
2 82205  63.0002 249.1806 0600186 178.6820 181.5987 13.81864454448080
UNKNOWN                 
1 82223U          22286.45245137  .00002366  00000+0  14903-2 0  9993
2 82223  99.3961 114.5528 0075621 305.3498  54.0615 14.03936210286113
UNKNOWN                 
1 82227U          22288.42953844  .00000051  00000+0  69378-3 0  9993
2 82227 101.8906 257.5841 0003844  45.3132 113.9550 12.42003090497855
UNKNOWN                 
1 82272U          22289.96622148  .00000385  00000+0  13441-2 0  9992
2 82272  67.5210 126.1604 0758684 123.6628 243.9105 12.32310982129838
UNKNOWN                 
1 82284U          22289.45680213  .00009108  00000+0  33244-2 0  9991
2 82284  99.5721 113.5591 0100793 162.4378 198.0327 14.30468168506232
UNKNOWN                 
1 82285U          22290.44508793  .00003934  00000+0  38641-2 0  9992
2 82285 101.9915 111.1926 0345665 306.5865  50.3916 13.56300912438746
UNKNOWN                 
1 82295U          22287.42679759  .00001431  00000+0  57364-3 0  9992
2 82295  66.6219 293.9388 0136062 314.1117  44.8847 14.26230955414692
UNKNOWN                 
1 82303U          22290.56957472  .00006015  00000+0  12331-1 0  9998
2 82303  81.9492 222.7513 0082582   8.4620 110.5684 13.31487636358517
UNKNOWN                 
1 82311U          22290.02779195  .00000702  00000+0  10867-2 0  9992
2 82311  99.5072  17.4823 0109473 326.9822  32.4511 13.52312356394395
UNKNOWN                 
1 82314U          22286.94453356  .00035171  00000+0  10920-2 0  9997
2 82314  99.2353  99.7313 0151338  30.8949 330.1078 15.22765216367664
UNKNOWN                 
1 82320U          22263.98627258  .00001218  00000+0  44235-3 0  9999
2 82320  99.8194 332.3031 0157990  13.6888 346.8500 14.28845217459610
UNKNOWN                 
1 82322U          22290.17853069  .00006789  00000+0  15339-2 0  9993
2 82322  98.5607   8.8687 0072287  17.5617 342.8054 14.54961415396996
UNKNOWN                 
1 82363U          22288.03425744  .00000343  00000+0  63672-3 0  9999
2 82363  66.9371 143.0556 0464290 182.4038 177.4773 13.14040208138462
UNKNOWN                 
1 82369U 99025    22287.37566006  .00000418  00000+0  32082-3 0  9997
2 82369  98.9995 316.6368 0083165 284.6105  74.5847 13.97150302395789
UNKNOWN                 
1 82381U          22290.48721842  .00004435  00000+0  13843-2 0  9999
2 82381  98.4752 125.7120 0017233  84.7192 275.5963 14.41208335343103
UNKNOWN                 
1 82383U          22288.12739749  .00043710  00000+0  48255-2 0  9998
2 82383  98.2657 350.8150 0003625  41.6538 318.4953 14.87272687375761
UNKNOWN                 
1 82402U          22290.28309613  .00003043  00000+0  34011-3 0  9994
2 82402  86.6635 285.6195 0010683   5.4112 354.7227 14.86589236282429
UNKNOWN                 
1 82410U          22279.21819466  .00000307  00000+0  38693-3 0  9995
2 82410  66.6567 249.1900 0055206  82.2516 278.4818 13.76203106426571
UNKNOWN                 
1 82428U          22289.97753553  .00029730  00000+0  21651-1 0  9997
2 82428  63.1861 130.4203 0122583  64.1674 297.1958 13.92510453260296
UNKNOWN                 
1 82432U 93036    22288.64113601  .00001506  00000+0  37748-3 0  9997
2 82432  74.0119   7.5439 0061784  91.9698 268.8540 14.51140091315108
UNKNOWN                 
1 82448U          22287.71464277  .00004146  00000+0  46460-3 0  9992
2 82448  85.8752  86.9101 0012907  66.8700 293.3882 14.86542932264601
UNKNOWN                 
1 82451U          22281.75054620  .00064085  00000+0  54596-2 0  9997
2 82451  66.5054  24.4827 0247575 265.4262  91.8543 14.76652497961830
UNKNOWN                 
1 82453U          22287.33319022  .00000006  00000+0  37801-3 0  9993
2 82453 102.0080 236.4778 0093454 185.2095 174.8003 12.39555446402897
UNKNOWN                 
1 82458U          22283.27323271  .00002560  00000+0  14601-2 0  9997
2 82458  66.5109 290.6316 0056036  69.6144 291.0950 14.10509032445861
UNKNOWN                 
1 82464U          22288.26895465  .00013370  00000+0  36347-2 0  9999
2 82464  70.9968 107.5598 0078227 108.6486  65.2640 14.45786290466891
UNKNOWN                 
1 82475U          22288.83386659  .00002195  00000+0  13044-2 0  9996
2 82475  99.1160 331.4569 0106168  78.1327 283.1723 14.05732311383721
UNKNOWN                 
1 82484U          22289.62584157  .00000096  00000+0  19916-3 0  9990
2 82484  99.4982 347.2974 0044766 229.8482 129.8731 13.55178875434414
UNKNOWN                 
1 82494U 93036    22287.85159000  .00005801  00000+0  14617-2 0  9991
2 82494  74.0212  84.8644 0011044 129.0667 231.1479 14.51311922314587
UNKNOWN                 
1 82500U          22282.34821852  .00003935  00000+0  22547-2 0  9995
2 82500  70.9712 270.4768 0137826  60.1512 301.3221 14.05341054455237
UNKNOWN                 
1 82517U          22290.20017936  .00014471  00000+0  38032-2 0  9990
2 82517  86.3900 214.2238 0022315  80.4378 279.9346 14.48900376256652
UNKNOWN                 
1 82524U          22288.73327949  .00005535  00000+0  24202-2 0  9996
2 82524  73.2921 196.6139 0173247  10.8783  17.9359 14.16339897412724
UNKNOWN                 
1 82526U          22289.09556491  .00002467  00000+0  15690-2 0  9996
2 82526  99.2198 337.8510 0102168 272.0969  86.8499 14.02184766359777
UNKNOWN                 
1 82529U          22288.78374816  .00000390  00000+0  67498-3 0  9990
2 82529  99.7945  33.8482 0248896 169.4517 343.9180 13.38913400435191
UNKNOWN                 
1 82545U          22284.19686489 -.00000061  00000+0 -49923-3 0  9991
2 82545  64.8817 249.8106 0171601 157.6566 203.1949 11.30784615307916
UNKNOWN                 
1 82560U          22289.05951197  .00001056  00000+0  96069-3 0  9995
2 82560 100.0302 134.8742 0010119  89.6254  61.8230 13.86019637451806
UNKNOWN                 
1 82561U          22289.75000630  .00007904  00000+0  21674-2 0  9997
2 82561  63.1121 278.9744 0513454  13.6004 160.7620 13.90640039450742
UNKNOWN                 
1 82576U          22290.06207905  .00002175  00000+0  14077-2 0  9997
2 82576  99.2368 326.3281 0116840 304.4600  54.5568 14.00621883 72420
UNKNOWN                 
1 82597U          22288.28021748  .00001232  00000+0  49451-3 0  9998
2 82597  66.7719 289.5360 0095953  86.1406 275.0656 14.28983925463676
UNKNOWN                 
1 82616U          22283.44706563  .00046225  00000+0  45051-2 0  9990
2 82616  97.2837 345.7981 0080026 166.2651 194.0771 14.89885032394026
UNKNOWN                 
1 82617U          22285.88517271  .00000775  00000+0  22052-3 0  9994
2 82617  74.0272 249.7071 0039358 119.8459 240.6621 14.46548638469394
UNKNOWN                 
1 82627U          22272.70740983  .00000368  00000+0  96519-3 0  9997
2 82627  82.4801   1.2733 0014146 142.2426  10.7259 13.14043725425031
UNKNOWN                 
1 82642U          22290.21977179  .00001137  00000+0  73580-3 0  9997
2 82642  98.9939 198.3189 0141532 201.6080 157.9074 14.00020843454483
UNKNOWN                 
1 82683U 99057    22290.18389906  .00002278  00000+0  94735-3 0  9995
2 82683  98.1412  73.7499 0227104 153.0174 208.3025 14.14250160299037
UNKNOWN                 
1 82693U          22289.03330738  .00002123  00000+0  28320-2 0  9992
2 82693 100.5273 139.6614 0049898 354.8847   5.1775 13.61239071396359
UNKNOWN                 
1 82698U          22289.82922502  .00002403  00000+0  14938-2 0  9991
2 82698  61.6152 339.3195 0717715 229.9463 123.6447 13.22267152385534
UNKNOWN                 
1 82708U          22290.44742581  .00000806  00000+0  33655-2 0  9992
2 82708 102.1506  10.9866 0064051  93.4292 267.4127 12.87566404375059
UNKNOWN                 
1 82729U          22289.82590184  .00000063  00000+0  35256-3 0  9990
2 82729  67.9594 336.7788 0830459  79.2205 290.1073 12.16310100394919
UNKNOWN                 
1 82737U          22290.37408273  .00015146  00000+0  18728-1 0  9999
2 82737 102.8362 114.1091 0303827 160.4785 200.8270 13.47470548389756
UNKNOWN                 
1 82739U          22290.01360997  .00001547  00000+0  14207-2 0  9991
2 82739  99.0283 120.7028 0181803 128.6028  22.8220 13.77085776447158
UNKNOWN                 
1 82741U          22290.51099837  .00001883  00000+0  23504-2 0  9994
2 82741 102.8712 309.4280 0210791 307.8254  50.3957 13.57700397440267
UNKNOWN                 
1 82755U          22290.21878609  .00038659  00000+0  46171-2 0  9994
2 82755  99.8073 105.4885 0002627 265.3340  94.7568 14.84081977474964
UNKNOWN                 
1 82783U          22290.44544113  .00000931  00000+0  27696-2 0  9993
2 82783  90.3120   3.6588 0017656 331.8276  28.1894 13.07181694353711
UNKNOWN                 
1 82785U          22286.28539179  .00021694  00000+0  28717-2 0  9992
2 82785  63.1218 125.5523 0389614  54.8636 308.8297 14.38774378463922
UNKNOWN                 
1 82798U          22289.52875118  .00001764  00000+0  89845-3 0  9998
2 82798  82.9548  29.4381 0033056  33.4986 340.9886 14.15011473148861
UNKNOWN                 
1 82820U          22289.46215106  .00002314  00000+0  10433-2 0  9990
2 82820  99.8112 297.4896 0059611  29.8521 330.6031 14.22429881461060
UNKNOWN                 
1 82829U          22290.47031153  .00000015  00000+0  15768-2 0  9992
2 82829  65.0970 108.1117 0174231 228.9028 155.5896 11.28920553520727
UNKNOWN                 
1 82854U          22288.13938235  .00001785  00000+0  15439-2 0  9997
2 82854  82.6912 245.2018 0133175 299.8565  58.9413 13.81953087920379
